IRIDIUM 57              
1 25273U 98019B   24217.59964622  .00000694  00000+0  23539-3 0  9998
2 25273  86.3938 277.8422 0002281  92.8277 267.3181 14.35309764379366
IRIDIUM 63              
1 25286U 98021B   24217.53509279  .00000871  00000+0  29422-3 0  9996
2 25286  86.3983 214.7730 0002218  93.9097 266.2353 14.35860655378666
IRIDIUM 69              
1 25319U 98026A   24217.53063356  .00001034  00000+0  32139-3 0  9990
2 25319  86.3959 229.0116 0002889  39.4126 320.7283 14.40115282377476
IRIDIUM 71              
1 25320U 98026B   24217.52032962  .00000917  00000+0  28279-3 0  9999
2 25320  86.3962 223.7681 0004216  71.7406 288.4252 14.40418826377999
IRIDIUM 73              
1 25344U 98032C   24217.44939300  .00001425  00000+0  35794-3 0  9990
2 25344  86.4467 181.1832 0002419  73.7462 286.4008 14.50678418384629
IRIDIUM 82              
1 25467U 98051A   24217.61306927  .00021963  00000+0  10507-2 0  9992
2 25467  86.3708 262.7624 0124156  43.5468 317.5489 15.12186107375808
